FLOCK 4H-33             
1 66736U 25276BY  25357.73784159  .00010727  00000+0  52594-3 0  9990
2 66736  97.4426  69.3473 0002706 155.8951 204.2410 15.18301050  3799
FLOCK 4H-34             
1 66737U 25276BZ  25357.54170527  .00082086  00000+0  39374-2 0  9995
2 66737  97.4433  69.1538 0000768 107.7551 252.3767 15.18538470  3018
FLOCK 4H-35             
1 66738U 25276CA  25357.73791630  .00010381  00000+0  50977-3 0  9993
2 66738  97.4402  69.3386 0002420 145.7931 214.3459 15.18255641  3088
FLOCK 4H-36             
1 66739U 25276CB  25357.74210125  .00009931  00000+0  49132-3 0  9990
2 66739  97.4448  69.3500 0002430 181.9124 178.2101 15.18005961  3792
TRANSPORTER-15CC        
1 66740U 25276CC  25357.74703931  .00008426  00000+0  42087-3 0  9994
2 66740  97.4411  69.3342 0002164 233.6753 126.4281 15.17721581  3791
TRANSPORTER-15CD        
1 66741U 25276CD  25357.74806532  .00004385  00000+0  22135-3 0  9998
2 66741  97.4407  69.3245 0001058 222.9669 137.1482 15.17622987  3799
TRANSPORTER-15CE        
1 66742U 25276CE  25357.74648882  .00009871  00000+0  49253-3 0  9996
2 66742  97.4403  69.3241 0001677 187.4386 172.6823 15.17710440  3795
TRANSPORTER-15CF        
1 66743U 25276CF  25357.68449463  .00615721  00000+0  28237-1 0  9998
2 66743  97.4402  69.2539 0002540  45.1302 315.0138 15.17950356  3785
TRANSPORTER-15CG        
1 66744U 25276CG  25357.02426366 -.00722303  00000+0 -35805-1 0  9990
2 66744  97.4248  68.6225 0024572 243.3371 116.5347 15.19817649  3680
TRANSPORTER-15CH        
1 66745U 25276CH  25357.75047723  .00004260  00000+0  21629-3 0  9991
2 66745  97.4411  69.3274 0001499 233.3743 126.7353 15.17430278  3799
TRANSPORTER-15CJ        
1 66746U 25276CJ  25356.43123013  .00013472  00000+0  67533-3 0  9992
2 66746  97.4408  68.0277 0002532 254.7861 105.3092 15.17466775  3594
W-SERIES 5              
1 66747U 25276CK  25357.74862769  .00008810  00000+0  44205-3 0  9997
2 66747  97.4410  69.3262 0001375 202.5118 157.6055 15.17549815  3794
