CCSDS_OMM_VERS = 2.0
CREATION_DATE  = 
ORIGINATOR     = 

OBJECT_NAME    = FLOCK 4H-33
OBJECT_ID      = 2025-276BY
CENTER_NAME    = EARTH
REF_FRAME      = TEME
TIME_SYSTEM    = UTC
MEAN_ELEMENT_THEORY = SGP/SGP4

EPOCH          = 2025-12-23T17:42:29.513376
MEAN_MOTION    = 15.18301050
ECCENTRICITY   = .0002706
INCLINATION    = 97.4426
RA_OF_ASC_NODE = 69.3473
ARG_OF_PERICENTER = 155.8951
MEAN_ANOMALY   = 204.2410

EPHEMERIS_TYPE = 0
CLASSIFICATION_TYPE = U
NORAD_CAT_ID   = 66736
ELEMENT_SET_NO = 999
REV_AT_EPOCH   = 379
BSTAR          = .52594E-3
MEAN_MOTION_DOT = .10727E-3
MEAN_MOTION_DDOT = 0

CCSDS_OMM_VERS = 2.0
CREATION_DATE  = 
ORIGINATOR     = 

OBJECT_NAME    = FLOCK 4H-34
OBJECT_ID      = 2025-276BZ
CENTER_NAME    = EARTH
REF_FRAME      = TEME
TIME_SYSTEM    = UTC
MEAN_ELEMENT_THEORY = SGP/SGP4

EPOCH          = 2025-12-23T13:00:03.335328
MEAN_MOTION    = 15.18538470
ECCENTRICITY   = .0000768
INCLINATION    = 97.4433
RA_OF_ASC_NODE = 69.1538
ARG_OF_PERICENTER = 107.7551
MEAN_ANOMALY   = 252.3767

EPHEMERIS_TYPE = 0
CLASSIFICATION_TYPE = U
NORAD_CAT_ID   = 66737
ELEMENT_SET_NO = 999
REV_AT_EPOCH   = 301
BSTAR          = .39374E-2
MEAN_MOTION_DOT = .82086E-3
MEAN_MOTION_DDOT = 0

CCSDS_OMM_VERS = 2.0
CREATION_DATE  = 
ORIGINATOR     = 

OBJECT_NAME    = FLOCK 4H-35
OBJECT_ID      = 2025-276CA
CENTER_NAME    = EARTH
REF_FRAME      = TEME
TIME_SYSTEM    = UTC
MEAN_ELEMENT_THEORY = SGP/SGP4

EPOCH          = 2025-12-23T17:42:35.968320
MEAN_MOTION    = 15.18255641
ECCENTRICITY   = .000242
INCLINATION    = 97.4402
RA_OF_ASC_NODE = 69.3386
ARG_OF_PERICENTER = 145.7931
MEAN_ANOMALY   = 214.3459

EPHEMERIS_TYPE = 0
CLASSIFICATION_TYPE = U
NORAD_CAT_ID   = 66738
ELEMENT_SET_NO = 999
REV_AT_EPOCH   = 308
BSTAR          = .50977E-3
MEAN_MOTION_DOT = .10381E-3
MEAN_MOTION_DDOT = 0

CCSDS_OMM_VERS = 2.0
CREATION_DATE  = 
ORIGINATOR     = 

OBJECT_NAME    = FLOCK 4H-36
OBJECT_ID      = 2025-276CB
CENTER_NAME    = EARTH
REF_FRAME      = TEME
TIME_SYSTEM    = UTC
MEAN_ELEMENT_THEORY = SGP/SGP4

EPOCH          = 2025-12-23T17:48:37.548000
MEAN_MOTION    = 15.18005961
ECCENTRICITY   = .000243
INCLINATION    = 97.4448
RA_OF_ASC_NODE = 69.3500
ARG_OF_PERICENTER = 181.9124
MEAN_ANOMALY   = 178.2101

EPHEMERIS_TYPE = 0
CLASSIFICATION_TYPE = U
NORAD_CAT_ID   = 66739
ELEMENT_SET_NO = 999
REV_AT_EPOCH   = 379
BSTAR          = .49132E-3
MEAN_MOTION_DOT = .9931E-4
MEAN_MOTION_DDOT = 0

CCSDS_OMM_VERS = 2.0
CREATION_DATE  = 
ORIGINATOR     = 

OBJECT_NAME    = TRANSPORTER-15CC
OBJECT_ID      = 2025-276CC
CENTER_NAME    = EARTH
REF_FRAME      = TEME
TIME_SYSTEM    = UTC
MEAN_ELEMENT_THEORY = SGP/SGP4

EPOCH          = 2025-12-23T17:55:44.196384
MEAN_MOTION    = 15.17721581
ECCENTRICITY   = .0002164
INCLINATION    = 97.4411
RA_OF_ASC_NODE = 69.3342
ARG_OF_PERICENTER = 233.6753
MEAN_ANOMALY   = 126.4281

EPHEMERIS_TYPE = 0
CLASSIFICATION_TYPE = U
NORAD_CAT_ID   = 66740
ELEMENT_SET_NO = 999
REV_AT_EPOCH   = 379
BSTAR          = .42087E-3
MEAN_MOTION_DOT = .8426E-4
MEAN_MOTION_DDOT = 0

CCSDS_OMM_VERS = 2.0
CREATION_DATE  = 
ORIGINATOR     = 

OBJECT_NAME    = TRANSPORTER-15CD
OBJECT_ID      = 2025-276CD
CENTER_NAME    = EARTH
REF_FRAME      = TEME
TIME_SYSTEM    = UTC
MEAN_ELEMENT_THEORY = SGP/SGP4

EPOCH          = 2025-12-23T17:57:12.843648
MEAN_MOTION    = 15.17622987
ECCENTRICITY   = .0001058
INCLINATION    = 97.4407
RA_OF_ASC_NODE = 69.3245
ARG_OF_PERICENTER = 222.9669
MEAN_ANOMALY   = 137.1482

EPHEMERIS_TYPE = 0
CLASSIFICATION_TYPE = U
NORAD_CAT_ID   = 66741
ELEMENT_SET_NO = 999
REV_AT_EPOCH   = 379
BSTAR          = .22135E-3
MEAN_MOTION_DOT = .4385E-4
MEAN_MOTION_DDOT = 0

CCSDS_OMM_VERS = 2.0
CREATION_DATE  = 
ORIGINATOR     = 

OBJECT_NAME    = TRANSPORTER-15CE
OBJECT_ID      = 2025-276CE
CENTER_NAME    = EARTH
REF_FRAME      = TEME
TIME_SYSTEM    = UTC
MEAN_ELEMENT_THEORY = SGP/SGP4

EPOCH          = 2025-12-23T17:54:56.634048
MEAN_MOTION    = 15.17710440
ECCENTRICITY   = .0001677
INCLINATION    = 97.4403
RA_OF_ASC_NODE = 69.3241
ARG_OF_PERICENTER = 187.4386
MEAN_ANOMALY   = 172.6823

EPHEMERIS_TYPE = 0
CLASSIFICATION_TYPE = U
NORAD_CAT_ID   = 66742
ELEMENT_SET_NO = 999
REV_AT_EPOCH   = 379
BSTAR          = .49253E-3
MEAN_MOTION_DOT = .9871E-4
MEAN_MOTION_DDOT = 0

CCSDS_OMM_VERS = 2.0
CREATION_DATE  = 
ORIGINATOR     = 

OBJECT_NAME    = TRANSPORTER-15CF
OBJECT_ID      = 2025-276CF
CENTER_NAME    = EARTH
REF_FRAME      = TEME
TIME_SYSTEM    = UTC
MEAN_ELEMENT_THEORY = SGP/SGP4

EPOCH          = 2025-12-23T16:25:40.336032
MEAN_MOTION    = 15.17950356
ECCENTRICITY   = .000254
INCLINATION    = 97.4402
RA_OF_ASC_NODE = 69.2539
ARG_OF_PERICENTER = 45.1302
MEAN_ANOMALY   = 315.0138

EPHEMERIS_TYPE = 0
CLASSIFICATION_TYPE = U
NORAD_CAT_ID   = 66743
ELEMENT_SET_NO = 999
REV_AT_EPOCH   = 378
BSTAR          = .28237E-1
MEAN_MOTION_DOT = .615721E-2
MEAN_MOTION_DDOT = 0

CCSDS_OMM_VERS = 2.0
CREATION_DATE  = 
ORIGINATOR     = 

OBJECT_NAME    = TRANSPORTER-15CG
OBJECT_ID      = 2025-276CG
CENTER_NAME    = EARTH
REF_FRAME      = TEME
TIME_SYSTEM    = UTC
MEAN_ELEMENT_THEORY = SGP/SGP4

EPOCH          = 2025-12-23T00:34:56.380224
MEAN_MOTION    = 15.19817649
ECCENTRICITY   = .00245723
INCLINATION    = 97.4248
RA_OF_ASC_NODE = 68.6225
ARG_OF_PERICENTER = 243.3371
MEAN_ANOMALY   = 116.5347

EPHEMERIS_TYPE = 0
CLASSIFICATION_TYPE = U
NORAD_CAT_ID   = 66744
ELEMENT_SET_NO = 999
REV_AT_EPOCH   = 368
BSTAR          = -.35805385E-1
MEAN_MOTION_DOT = -.722303E-2
MEAN_MOTION_DDOT = 0

CCSDS_OMM_VERS = 2.0
CREATION_DATE  = 
ORIGINATOR     = 

OBJECT_NAME    = TRANSPORTER-15CH
OBJECT_ID      = 2025-276CH
CENTER_NAME    = EARTH
REF_FRAME      = TEME
TIME_SYSTEM    = UTC
MEAN_ELEMENT_THEORY = SGP/SGP4

EPOCH          = 2025-12-23T18:00:41.232672
MEAN_MOTION    = 15.17430278
ECCENTRICITY   = .0001499
INCLINATION    = 97.4411
RA_OF_ASC_NODE = 69.3274
ARG_OF_PERICENTER = 233.3743
MEAN_ANOMALY   = 126.7353

EPHEMERIS_TYPE = 0
CLASSIFICATION_TYPE = U
NORAD_CAT_ID   = 66745
ELEMENT_SET_NO = 999
REV_AT_EPOCH   = 379
BSTAR          = .21629E-3
MEAN_MOTION_DOT = .426E-4
MEAN_MOTION_DDOT = 0

CCSDS_OMM_VERS = 2.0
CREATION_DATE  = 
ORIGINATOR     = 

OBJECT_NAME    = TRANSPORTER-15CJ
OBJECT_ID      = 2025-276CJ
CENTER_NAME    = EARTH
REF_FRAME      = TEME
TIME_SYSTEM    = UTC
MEAN_ELEMENT_THEORY = SGP/SGP4

EPOCH          = 2025-12-22T10:20:58.283232
MEAN_MOTION    = 15.17466775
ECCENTRICITY   = .00025324
INCLINATION    = 97.4408
RA_OF_ASC_NODE = 68.0277
ARG_OF_PERICENTER = 254.7861
MEAN_ANOMALY   = 105.3092

EPHEMERIS_TYPE = 0
CLASSIFICATION_TYPE = U
NORAD_CAT_ID   = 66746
ELEMENT_SET_NO = 999
REV_AT_EPOCH   = 359
BSTAR          = .67533479E-3
MEAN_MOTION_DOT = .13472E-3
MEAN_MOTION_DDOT = 0

CCSDS_OMM_VERS = 2.0
CREATION_DATE  = 
ORIGINATOR     = 

OBJECT_NAME    = W-SERIES 5
OBJECT_ID      = 2025-276CK
CENTER_NAME    = EARTH
REF_FRAME      = TEME
TIME_SYSTEM    = UTC
MEAN_ELEMENT_THEORY = SGP/SGP4

EPOCH          = 2025-12-23T17:58:01.432416
MEAN_MOTION    = 15.17549815
ECCENTRICITY   = .0001375
INCLINATION    = 97.4410
RA_OF_ASC_NODE = 69.3262
ARG_OF_PERICENTER = 202.5118
MEAN_ANOMALY   = 157.6055

EPHEMERIS_TYPE = 0
CLASSIFICATION_TYPE = U
NORAD_CAT_ID   = 66747
ELEMENT_SET_NO = 999
REV_AT_EPOCH   = 379
BSTAR          = .44205E-3
MEAN_MOTION_DOT = .881E-4
MEAN_MOTION_DDOT = 0

